NORAD_CAT_ID,OBJECT_NAME,OBJECT_TYPE,EPOCH,MEAN_MOTION,ECCENTRICITY,INCLINATION,RA_OF_ASC_NODE,ARG_OF_PERICENTER,MEAN_ANOMALY,BSTAR,MEAN_MOTION_DOT,MEAN_MOTION_DDOT,TLE_LINE0,TLE_LINE1,TLE_LINE2,SEMIMAJOR_AXIS,PERIOD,APOGEE,PERIGEE,DECAYED
56448.0,STARLINK-5990,PAYLOAD,2023-07-12 22:00:00,15.03942314,0.0003088,70.0007,72.3003,270.6587,287.7392,-0.068804,-0.00881953,0.0,0 STARLINK-5990,1 56448U 23064A   23193.91667824 -.00881953  00000-0 -68804-1 0  9996,2 56448  70.0007  72.3003 0003088 270.6587 287.7392 15.03942314 10182,6932.891,95.748,556.897,552.615,0.0
56448.0,STARLINK-5990,PAYLOAD,2023-07-13 18:00:00,15.02376847,0.0003279,70.0011,70.1836,268.8262,117.7132,-0.080388,-0.00991701,0.0,0 STARLINK-5990,1 56448U 23064A   23194.75001157 -.00991701  00000-0 -80388-1 0  9994,2 56448  70.0011  70.1836 0003279 268.8262 117.7132 15.02376847 10318,6937.706,95.848,561.846,557.297,0.0
56448.0,STARLINK-5990,PAYLOAD,2023-07-14 00:00:00,15.01818786,0.000319,70.0009,69.5496,271.9439,26.1119,-0.07093,-0.00860825,0.0,0 STARLINK-5990,1 56448U 23064A   23195.00001157 -.00860825  00000-0 -70930-1 0  9997,2 56448  70.0009  69.5496 0003190 271.9439  26.1119 15.01818786 10345,6939.425,95.884,563.504,559.076,0.0
56448.0,STARLINK-5990,PAYLOAD,2023-07-14 14:00:01,15.00711869,0.0003051,70.0008,68.0723,265.6738,304.147,-0.077287,-0.00907263,0.0,0 STARLINK-5990,1 56448U 23064A   23195.58334491 -.00907263  00000-0 -77287-1 0  9990,2 56448  70.0008  68.0723 0003051 265.6738 304.1470 15.00711869 10431,6942.837,95.954,566.82,562.584,0.0
56448.0,STARLINK-5990,PAYLOAD,2023-07-15 06:00:02,14.99349886,0.0003003,70.0004,66.3869,272.2168,296.7698,-0.0079579,-0.00096267,0.0,0 STARLINK-5990,1 56448U 23064A   23196.25002315 -.00096267  00000-0 -79579-2 0  9992,2 56448  70.0004  66.3869 0003003 272.2168 296.7698 14.99349886 10539,6947.041,96.042,570.992,566.82,0.0
56448.0,STARLINK-5990,PAYLOAD,2023-07-15 14:00:01,14.99281073,0.0002928,70.0005,65.545,265.9945,301.594,0.003065,0.00037591,0.0,0 STARLINK-5990,1 56448U 23064A   23196.58334491  .00037591  00000-0  30650-2 0  9991,2 56448  70.0005  65.5450 0002928 265.9945 301.5940 14.99281073 10587,6947.253,96.046,571.152,567.084,0.0
56448.0,STARLINK-5990,PAYLOAD,2023-07-15 22:00:00,14.99284813,0.0002947,70.0005,64.7035,270.4014,295.8232,0.00067593,8.183e-05,0.0,0 STARLINK-5990,1 56448U 23064A   23196.91667824  .00008183  00000-0  67593-3 0  9999,2 56448  70.0005  64.7035 0002947 270.4014 295.8232 14.99284813 10636,6947.242,96.046,571.154,567.059,0.0
56448.0,STARLINK-5990,PAYLOAD,2023-07-17 02:00:01,14.99292694,0.0003056,70.0001,61.7569,271.7609,109.7447,0.00071166,8.623e-05,0.0,0 STARLINK-5990,1 56448U 23064A   23198.08334491  .00008623  00000-0  71166-3 0  9990,2 56448  70.0001  61.7569 0003056 271.7609 109.7447 14.99292694 10814,6947.217,96.045,571.206,566.959,0.0
56448.0,STARLINK-5990,PAYLOAD,2023-07-18 00:19:18,14.99298062,0.0002766,69.9988,59.4078,264.2458,95.8386,7.1861e-05,7.85e-06,0.0,0 STARLINK-5990,1 56448U 23064A   23199.01341078  .00000785  00000-0  71861-4 0  9997,2 56448  69.9988  59.4078 0002766 264.2458  95.8386 14.99298062 10957,6947.201,96.045,570.987,567.144,0.0
56448.0,STARLINK-5990,PAYLOAD,2023-07-19 00:20:23,14.99299842,0.0002765,69.9989,56.8814,263.7397,96.3448,-1.9815e-05,-3.36e-06,0.0,0 STARLINK-5990,1 56448U 23064A   23200.01416411 -.00000336  00000-0 -19815-4 0  9999,2 56448  69.9989  56.8814 0002765 263.7397  96.3448 14.99299842 11102,6947.195,96.045,570.981,567.139,0.0
56448.0,STARLINK-5990,PAYLOAD,2023-07-21 00:22:33,14.9930417,0.0003061,69.9987,51.8263,272.0456,88.0353,6.5865e-05,7.12e-06,0.0,0 STARLINK-5990,1 56448U 23064A   23202.01566319  .00000712  00000-0  65865-4 0  9996,2 56448  69.9987  51.8263 0003061 272.0456  88.0353 14.99304170 11409,6947.182,96.045,571.174,566.92,0.0
56448.0,STARLINK-5990,PAYLOAD,2023-07-24 00:25:48,14.99307305,0.0002708,69.9998,44.244,269.6851,90.3998,-0.00020959,-2.658e-05,0.0,0 STARLINK-5990,1 56448U 23064A   23205.01792224 -.00002658  00000-0 -20959-3 0  9992,2 56448  69.9998  44.2440 0002708 269.6851  90.3998 14.99307305 11495,6947.172,96.044,570.919,567.156,0.0
56448.0,STARLINK-5990,PAYLOAD,2023-07-25 11:39:23,14.99302476,0.0003102,69.9988,40.5378,272.8626,87.2178,2.1413e-05,1.68e-06,0.0,0 STARLINK-5990,1 56448U 23064A   23206.48568878  .00000168  00000-0  21413-4 0  9999,2 56448  69.9988  40.5378 0003102 272.8626  87.2178 14.99302476 11712,6947.187,96.045,571.207,566.897,0.0
56448.0,STARLINK-5990,PAYLOAD,2023-07-26 11:40:27,14.99310629,0.0003871,69.9964,38.0078,271.9317,88.1399,9.0164e-05,1.01e-05,0.0,0 STARLINK-5990,1 56448U 23064A   23207.48643016  .00001010  00000-0  90164-4 0  9994,2 56448  69.9964  38.0078 0003871 271.9317  88.1399 14.99310629 11865,6947.162,96.044,571.716,566.338,0.0
56448.0,STARLINK-5990,PAYLOAD,2023-07-26 19:40:47,14.99324067,0.0002464,69.9998,37.1695,254.6672,105.4216,0.00028263,3.368e-05,0.0,0 STARLINK-5990,1 56448U 23064A   23207.81999439  .00003368  00000-0  28263-3 0  9992,2 56448  69.9998  37.1695 0002464 254.6672 105.4216 14.99324067 12274,6947.121,96.043,570.697,567.274,0.0
56448.0,STARLINK-5990,PAYLOAD,2023-07-27 13:17:36,14.99302631,0.0002936,69.9968,35.3134,271.0474,89.0349,-4.0882e-05,-5.94e-06,0.0,0 STARLINK-5990,1 56448U 23064A   23208.55389959 -.00000594  00000-0 -40882-4 0  9996,2 56448  69.9968  35.3134 0002936 271.0474  89.0349 14.99302631 12026,6947.187,96.045,571.091,567.012,0.0
56448.0,STARLINK-5990,PAYLOAD,2023-07-27 21:17:59,14.99291951,0.0002758,69.9976,34.469,281.5726,78.5123,-0.00012043,-1.567e-05,0.0,0 STARLINK-5990,1 56448U 23064A   23208.88749538 -.00001567  00000-0 -12043-3 0  9993,2 56448  69.9976  34.4690 0002758 281.5726  78.5123 14.99291951 12070,6947.22,96.045,571.001,567.169,0.0
56448.0,STARLINK-5990,PAYLOAD,2023-07-27 22:54:03,14.99301146,0.0002792,69.9991,34.2987,279.1685,80.9158,-0.0002376,-3e-05,0.0,0 STARLINK-5990,1 56448U 23064A   23208.95420890 -.00003000  00000-0 -23760-3 0  9990,2 56448  69.9991  34.2987 0002792 279.1685  80.9158 14.99301146 12443,6947.191,96.045,570.996,567.117,0.0
56448.0,STARLINK-5990,PAYLOAD,2023-07-28 11:42:38,14.99306474,0.0003541,69.9984,32.9549,270.3853,89.6901,-0.0003048,-3.822e-05,0.0,0 STARLINK-5990,1 56448U 23064A   23209.48794027 -.00003822  00000-0 -30480-3 0  9994,2 56448  69.9984  32.9549 0003541 270.3853  89.6901 14.99306474 12167,6947.175,96.044,571.5,566.58,0.0
56448.0,STARLINK-5990,PAYLOAD,2023-07-28 21:19:07,14.99261375,0.0004022,69.9981,31.9436,278.0453,82.025,-0.0007211,-8.898e-05,0.0,0 STARLINK-5990,1 56448U 23064A   23209.88828601 -.00008898  00000-0 -72110-3 0  9998,2 56448  69.9981  31.9436 0004022 278.0453  82.0250 14.99261375 12584,6947.314,96.047,571.973,566.385,0.0
56448.0,STARLINK-5990,PAYLOAD,2023-07-29 10:08:29,14.98744304,0.0003306,69.9985,30.5981,264.584,95.4942,-0.0054011,-0.00064639,0.0,0 STARLINK-5990,1 56448U 23064A   23210.42256620 -.00064639  00000-0 -54011-2 0  9990,2 56448  69.9985  30.5981 0003306 264.5840  95.4942 14.98744304 12664,6948.912,96.08,573.074,568.48,0.0
56448.0,STARLINK-5990,PAYLOAD,2023-07-30 18:10:47,14.98599189,0.0003349,69.9987,27.2307,271.5334,88.5442,-0.0042774,-0.00051116,0.0,0 STARLINK-5990,1 56448U 23064A   23211.75749491 -.00051116  00000-0 -42774-2 0  9999,2 56448  69.9987  27.2307 0003349 271.5334  88.5442 14.98599189 12863,6949.361,96.09,573.553,568.898,0.0
56448.0,STARLINK-5990,PAYLOAD,2023-07-31 10:12:05,14.98364071,0.000315,69.9987,25.5472,273.5341,86.5458,-0.0004908,-5.949e-05,0.0,0 STARLINK-5990,1 56448U 23064A   23212.42506806 -.00005949  00000-0 -49080-3 0  9996,2 56448  69.9987  25.5472 0003150 273.5341  86.5458 14.98364071 12963,6950.088,96.105,574.142,569.763,0.0
56448.0,STARLINK-5990,PAYLOAD,2023-07-31 22:00:00,14.98329324,0.0003183,70.0004,24.3071,272.6162,218.409,0.0030438,0.00036414,0.0,0 STARLINK-5990,1 56448U 23064A   23212.91667824  .00036414  00000-0  30438-2 0  9993,2 56448  70.0004  24.3071 0003183 272.6162 218.4090 14.98329324 13034,6950.195,96.107,574.272,569.848,0.0
56448.0,STARLINK-5990,PAYLOAD,2023-08-01 22:00:00,14.9832586,0.000322,70.0006,21.7853,274.8415,208.707,0.0012363,0.00014688,0.0,0 STARLINK-5990,1 56448U 23064A   23213.91667824  .00014688  00000-0  12363-2 0  9990,2 56448  70.0006  21.7853 0003220 274.8415 208.7070 14.98325860 13189,6950.206,96.107,574.309,569.833,0.0
56448.0,STARLINK-5990,PAYLOAD,2023-08-02 10:16:07,14.9833809,0.0002833,69.9998,20.4973,270.7413,89.3421,-5.1942e-05,-7.13e-06,0.0,0 STARLINK-5990,1 56448U 23064A   23214.42786682 -.00000713  00000-0 -51942-4 0  9995,2 56448  69.9998  20.4973 0002833 270.7413  89.3421 14.98338090 13268,6950.168,96.106,574.002,570.064,0.0
56448.0,STARLINK-5990,PAYLOAD,2023-08-03 10:18:08,14.98337863,0.000266,70.0003,17.9736,265.4834,94.6021,-8.7514e-05,-1.137e-05,0.0,0 STARLINK-5990,1 56448U 23064A   23215.42926182 -.00001137  00000-0 -87514-4 0  9992,2 56448  70.0003  17.9736 0002660 265.4834  94.6021 14.98337863 13411,6950.169,96.106,573.882,570.185,0.0
56448.0,STARLINK-5990,PAYLOAD,2023-08-04 10:20:09,14.98329632,0.0002787,70.0001,15.4478,265.9312,94.1529,-2.2874e-05,-3.66e-06,0.0,0 STARLINK-5990,1 56448U 23064A   23216.43066210 -.00000366  00000-0 -22874-4 0  9992,2 56448  70.0001  15.4478 0002787 265.9312  94.1529 14.98329632 13560,6950.194,96.107,573.996,570.122,0.0
56448.0,STARLINK-5990,PAYLOAD,2023-08-05 10:22:10,14.98328164,0.0002975,70.0002,12.9224,266.5469,93.535,1.9169e-05,1.36e-06,0.0,0 STARLINK-5990,1 56448U 23064A   23217.43206175  .00000136  00000-0  19169-4 0  9995,2 56448  70.0002  12.9224 0002975 266.5469  93.5350 14.98328164 13712,6950.199,96.107,574.131,569.996,0.0
56448.0,STARLINK-5990,PAYLOAD,2023-08-06 10:24:11,14.98332377,0.0002606,70.001,10.3974,257.8398,102.2469,-0.00020082,-2.488e-05,0.0,0 STARLINK-5990,1 56448U 23064A   23218.43346710 -.00002488  00000-0 -20082-3 0  9995,2 56448  70.0010  10.3974 0002606 257.8398 102.2469 14.98332377 13866,6950.186,96.107,573.862,570.239,0.0
